*******************************************************************************
JPL/HORIZONS                1637 Swings (A907 GX)          2023-Sep-04 11:13:18
Rec #:    1637 (+COV) Soln.date: 2023-Aug-22_07:40:43   # obs: 3827 (1907-2023)
 
IAU76/J2000 helio. ecliptic osc. elements (au, days, deg., period=Julian yrs):
 
  EPOCH=  2457328.5 ! 2015-Nov-02.00 (TDB)         Residual RMS= .25868
   EC= .04404791774177531  QR= 2.935322832986085   TP= 2457323.5326583241
   OM= 21.29394977767445   W=  235.7107713945464   IN= 14.06860527093904
   A= 3.070575280355095    MA= .9099100956710211   ADIST= 3.205827727724104
   PER= 5.38069            N= .18317848            ANGMOM= .03011408
   DAN= 3.1426             DDN= 2.99041            L= 256.1881332
   B= -11.5858882          MOID= 1.94733           TP= 2015-Oct-28.0326583241
 
Asteroid physical parameters (km, seconds, rotational period in hours):
   GM= n.a.                RAD= 26.497             ROTPER= 10.264
   H= 10.47                G= .150                 B-V= n.a.
                           ALBEDO= .042            STYP= n.a.

ASTEROID comments: 
1: soln ref.= JPL#62, OCC=0
2: source=ORB
*******************************************************************************


*******************************************************************************
Ephemeris / API_USER Mon Sep  4 11:13:18 2023 Pasadena, USA      / Horizons
*******************************************************************************
Target body name: 1637 Swings (A907 GX)           {source: JPL#62}
Center body name: Solar System Barycenter (0)     {source: DE441}
Center-site name: BODY CENTER
*******************************************************************************
Start time      : A.D. 2023-Aug-12 00:00:00.0000 TDB
Stop  time      : A.D. 2023-Aug-13 00:00:00.0000 TDB
Step-size       : 2880 minutes
*******************************************************************************
Center geodetic : 0.0, 0.0, 0.0                   {E-lon(deg),Lat(deg),Alt(km)}
Center cylindric: 0.0, 0.0, 0.0                   {E-lon(deg),Dxy(km),Dz(km)}
Center radii    : (undefined)
Small perturbers: Yes                             {source: SB441-N16}
Output units    : KM-S
Calendar mode   : Mixed Julian/Gregorian
Output type     : GEOMETRIC cartesian states
Output format   : 2 (position and velocity)
Reference frame : Ecliptic of J2000.0
*******************************************************************************
Initial IAU76/J2000 heliocentric ecliptic osculating elements (au, days, deg.):
  EPOCH=  2457328.5 ! 2015-Nov-02.00 (TDB)         Residual RMS= .25868        
   EC= .04404791774177531  QR= 2.935322832986085   TP= 2457323.5326583241      
   OM= 21.29394977767445   W=  235.7107713945464   IN= 14.06860527093904       
  Equivalent ICRF heliocentric cartesian coordinates (au, au/d):
   X=-6.370450776076315E-01  Y=-2.334116196496651E+00  Z=-1.662018305776289E+00
  VX= 9.971957988556440E-03 VY=-1.274103888867154E-03 VZ=-2.046148746757233E-03
Asteroid physical parameters (km, seconds, rotational period in hours):        
   GM= n.a.                RAD= 26.497             ROTPER= 10.264              
   H= 10.47                G= .150                 B-V= n.a.                   
                           ALBEDO= .042            STYP= n.a.                  
*******************************************************************************
JDTDB
   X     Y     Z
   VX    VY    VZ
*******************************************************************************
$$SOE
2460168.500000000 = A.D. 2023-Aug-12 00:00:00.0000 TDB 
 X = 2.458518681595787E+08 Y = 4.056595310648465E+08 Z = 7.261180837554011E+07
 VX=-1.368518282599169E+01 VY= 8.106885173428610E+00 VZ= 3.140746983424475E+00
$$EOE
*******************************************************************************
 
TIME

  Barycentric Dynamical Time ("TDB" or T_eph) output was requested. This
continuous coordinate time is equivalent to the relativistic proper time
of a clock at rest in a reference frame co-moving with the solar system
barycenter but outside the system's gravity well. It is the independent
variable in the solar system relativistic equations of motion.

  TDB runs at a uniform rate of one SI second per second and is independent
of irregularities in Earth's rotation.
 
CALENDAR SYSTEM

  Mixed calendar mode was active such that calendar dates after AD 1582-Oct-15
(if any) are in the modern Gregorian system. Dates prior to 1582-Oct-5 (if any)
are in the Julian calendar system, which is automatically extended for dates
prior to its adoption on 45-Jan-1 BC.  The Julian calendar is useful for
matching historical dates. The Gregorian calendar more accurately corresponds
to the Earth's orbital motion and seasons. A "Gregorian-only" calendar mode is
available if such physical events are the primary interest.

REFERENCE FRAME AND COORDINATES

  Ecliptic at the standard reference epoch

    Reference epoch: J2000.0
    X-Y plane: adopted Earth orbital plane at the reference epoch
               Note: IAU76 obliquity of 84381.448 arcseconds wrt ICRF X-Y plane
    X-axis   : ICRF
    Z-axis   : perpendicular to the X-Y plane in the directional (+ or -) sense
               of Earth's north pole at the reference epoch.

  Symbol meaning:

    JDTDB    Julian Day Number, Barycentric Dynamical Time
      X      X-component of position vector (km)
      Y      Y-component of position vector (km)
      Z      Z-component of position vector (km)
      VX     X-component of velocity vector (km/sec)                           
      VY     Y-component of velocity vector (km/sec)                           
      VZ     Z-component of velocity vector (km/sec)                           

ABERRATIONS AND CORRECTIONS

 Geometric state vectors have NO corrections or aberrations applied.

Computations by ...

    Solar System Dynamics Group, Horizons On-Line Ephemeris System
    4800 Oak Grove Drive, Jet Propulsion Laboratory
    Pasadena, CA  91109   USA

    General site: https://ssd.jpl.nasa.gov/
    Mailing list: https://ssd.jpl.nasa.gov/email_list.html
    System news : https://ssd.jpl.nasa.gov/horizons/news.html
    User Guide  : https://ssd.jpl.nasa.gov/horizons/manual.html
    Connect     : browser        https://ssd.jpl.nasa.gov/horizons/app.html#/x
                  API            https://ssd-api.jpl.nasa.gov/doc/horizons.html
                  command-line   telnet ssd.jpl.nasa.gov 6775
                  e-mail/batch   https://ssd.jpl.nasa.gov/ftp/ssd/hrzn_batch.txt
                  scripts        https://ssd.jpl.nasa.gov/ftp/ssd/SCRIPTS
    Author      : Jon.D.Giorgini@jpl.nasa.gov
*******************************************************************************
